LANDSAT 9               
1 49260U 21088A   24227.47135940  .00002173  00000+0  49229-3 0  9991
2 49260  98.2283 296.3468 0001170  86.5739 273.5593 14.57112628153178
